[{"OBJECT_NAME":"GOES 19","OBJECT_ID":"2024-119A","EPOCH":"2026-03-06T13:35:59.051616","MEAN_MOTION":1.00271864,"ECCENTRICITY":0.00010966,"INCLINATION":0.0376,"RA_OF_ASC_NODE":316.9099,"ARG_OF_PERICENTER":71.1905,"MEAN_ANOMALY":264.978,"EPHEMERIS_TYPE":0,"CLASSIFICATION_TYPE":"U","NORAD_CAT_ID":60133,"ELEMENT_SET_NO":999,"REV_AT_EPOCH":593,"BSTAR":0,"MEAN_MOTION_DOT":-2.52e-6,"MEAN_MOTION_DDOT":0},{"OBJECT_NAME":"FENGYUN 3H","OBJECT_ID":"2025-219A","EPOCH":"2026-03-06T14:00:35.332128","MEAN_MOTION":14.19931614,"ECCENTRICITY":0.00013583,"INCLINATION":98.6683,"RA_OF_ASC_NODE":8.3965,"ARG_OF_PERICENTER":63.34,"MEAN_ANOMALY":296.7916,"EPHEMERIS_TYPE":0,"CLASSIFICATION_TYPE":"U","NORAD_CAT_ID":65815,"ELEMENT_SET_NO":999,"REV_AT_EPOCH":2282,"BSTAR":8.1508203e-5,"MEAN_MOTION_DOT":1.3e-6,"MEAN_MOTION_DDOT":0}]
