GOES 19                 
1 60133U 24119A   26065.56665569 -.00000252  00000+0  00000+0 0  9995
2 60133   0.0376 316.9099 0001096  71.1905 264.9780  1.00271864  5939
FENGYUN 3H              
1 65815U 25219A   26065.58374227  .00000130  00000+0  81508-4 0  9990
2 65815  98.6683   8.3965 0001358  63.3400 296.7916 14.19931614 22824
